norad_id,name,regime,epoch,line1,line2,inclination,eccentricity,mean_motion,raan,arg_pericenter,mean_anomaly
43231,O3B FM15,MEO,20321.40850450,1 43231U 18024A   20321.40850450 -.00000020 +00000-0 +00000-0 0 0001\,2 43231 000.0433 014.0452 0003021 219.5298 126.4027 05.0011525804909,0.0433,0.0003021,5.00115258,14.0452,219.5298,126.4027
43231,O3B FM15,MEO,20321.60839512,1 43231U 18024A   20321.60839512 -.00000021 +00000-0 +00000-0 0 0001\,2 43231 000.0433 014.0616 0003021 219.7523 126.1636 05.0011525604910,0.0433,0.0003021,5.00115256,14.0616,219.7523,126.1636
43231,O3B FM15,MEO,20322.40795747,1 43231U 18024A   20322.40795747 -.00000022 +00000-0 +00000-0 0 0001\,2 43231 000.0433 014.1115 0003021 220.4608 125.4044 05.0011525804914,0.0433,0.0003021,5.00115258,14.1115,220.4608,125.4044
43231,O3B FM15,MEO,20322.60784806,1 43231U 18024A   20322.60784806 -.00000023 +00000-0 +00000-0 0 0001\,2 43231 000.0433 014.1268 0003021 220.6617 125.1881 05.0011525904915,0.0433,0.0003021,5.00115259,14.1268,220.6617,125.1881
43231,O3B FM15,MEO,20323.00762927,1 43231U 18024A   20323.00762927 -.00000024 +00000-0 +00000-0 0 0001\,2 43231 000.0433 014.1602 0003021 221.0222 124.7937 05.0011525804917,0.0433,0.0003021,5.00115258,14.1602,221.0222,124.7937
43231,O3B FM15,MEO,20323.80719144,1 43231U 18024A   20323.80719144 -.00000025 +00000-0 +00000-0 0 0001\,2 43231 000.0433 014.2166 0003022 221.7360 124.0228 05.0011527904921,0.0433,0.0003022,5.00115279,14.2166,221.736,124.0228
43231,O3B FM15,MEO,20324.00708202,1 43231U 18024A   20324.00708202 -.00000026 +00000-0 +00000-0 0 0001\,2 43231 000.0433 014.2194 0003022 221.9187 123.8371 05.0011528204922,0.0433,0.0003022,5.00115282,14.2194,221.9187,123.8371
43231,O3B FM15,MEO,20324.20697259,1 43231U 18024A   20324.20697259 -.00000026 +00000-0 +00000-0 0 0001\,2 43231 000.0433 014.2524 0003022 222.0804 123.6423 05.0011528504924,0.0433,0.0003022,5.00115285,14.2524,222.0804,123.6423
43231,O3B FM15,MEO,20325.60620665,1 43231U 18024A   20325.60620665 -.00000027 +00000-0 +00000-0 0 0001\,2 43231 000.0433 014.3884 0003022 223.2968 122.2889 05.0011531604931,0.0433,0.0003022,5.00115316,14.3884,223.2968,122.2889
43231,O3B FM15,MEO,20326.40576872,1 43231U 18024A   20326.40576872 -.00000028  00000-0  00000+0 0  2386\,2 43231   0.0433  14.4432 0003023 223.9370 121.5936  5.00115359 49444,0.0433,0.0003023,5.00115359,14.4432,223.937,121.5936
43231,O3B FM15,MEO,20326.80555025,1 43231U 18024A   20326.80555025 -.00000027 +00000-0 +00000-0 0 0001\,2 43231 000.0433 014.3978 0003024 224.2152 121.3608 05.0011534304937,0.0433,0.0003024,5.00115343,14.3978,224.2152,121.3608
43231,O3B FM15,MEO,20327.40522238,1 43231U 18024A   20327.40522238 -.00000027 +00000-0 +00000-0 0 0001\,2 43231 000.0433 014.4287 0003025 224.7241 120.8208 05.0011533604940,0.0433,0.0003025,5.00115336,14.4287,224.7241,120.8208
43231,O3B FM15,MEO,20327.80500359,1 43231U 18024A   20327.80500359 -.00000027 +00000-0 +00000-0 0 0001\,2 43231 000.0433 014.4414 0003025 225.0678 120.4643 05.0011534804942,0.0433,0.0003025,5.00115348,14.4414,225.0678,120.4643
43231,O3B FM15,MEO,20328.20478496,1 43231U 18024A   20328.20478496 -.00000026 +00000-0 +00000-0 0 0001\,2 43231 000.0432 014.4510 0003025 225.3627 120.1598 05.0011535004944,0.0432,0.0003025,5.0011535,14.451,225.3627,120.1598
43231,O3B FM15,MEO,20328.60456632,1 43231U 18024A   20328.60456632 -.00000026 +00000-0 +00000-0 0 0001\,2 43231 000.0432 014.5196 0003025 225.7411 119.7129 05.0011535404946,0.0432,0.0003025,5.00115354,14.5196,225.7411,119.7129
43231,O3B FM15,MEO,20329.60401952,1 43231U 18024A   20329.60401952 -.00000024 +00000-0 +00000-0 0 0001\,2 43231 000.0432 014.4782 0003025 226.7377 118.7577 05.0011537704951,0.0432,0.0003025,5.00115377,14.4782,226.7377,118.7577
43231,O3B FM15,MEO,20330.40358216,1 43231U 18024A   20330.40358216 -.00000023 +00000-0 +00000-0 0 0001\,2 43231 000.0432 014.4990 0003025 227.5360 117.9387 05.0011539004955,0.0432,0.0003025,5.0011539,14.499,227.536,117.9387
43231,O3B FM15,MEO,20330.80336351,1 43231U 18024A   20330.80336351 -.00000022 +00000-0 +00000-0 0 0001\,2 43231 000.0432 014.5119 0003025 227.8973 117.5646 05.0011539404957,0.0432,0.0003025,5.00115394,14.5119,227.8973,117.5646
43231,O3B FM15,MEO,20331.00325414,1 43231U 18024A   20331.00325414 -.00000022 +00000-0 +00000-0 0 0001\,2 43231 000.0432 014.5621 0003026 228.1009 117.3109 05.0011539904958,0.0432,0.0003026,5.00115399,14.5621,228.1009,117.3109
43231,O3B FM15,MEO,20331.00325415,1 43231U 18024A   20331.00325415 -.00000022  00000-0  00000+0 0  2398\,2 43231   0.0432  14.5093 0003026 228.1049 117.3597  5.00115398 49674,0.0432,0.0003026,5.00115398,14.5093,228.1049,117.3597
43231,O3B FM15,MEO,20331.80281695,1 43231U 18024A   20331.80281695 -.00000020 +00000-0 +00000-0 0 0001\,2 43231 000.0432 014.5105 0003026 228.8822 116.5813 05.0011539404962,0.0432,0.0003026,5.00115394,14.5105,228.8822,116.5813
43231,O3B FM15,MEO,20332.20259831,1 43231U 18024A   20332.20259831 -.00000019 +00000-0 +00000-0 0 0001\,2 43231 000.0432 014.5613 0003027 229.2763 116.1365 05.0011539504964,0.0432,0.0003027,5.00115395,14.5613,229.2763,116.1365
43231,O3B FM15,MEO,20332.60237947,1 43231U 18024A   20332.60237947 -.00000019 +00000-0 +00000-0 0 0001\,2 43231 000.0432 014.5107 0003027 229.6448 115.8187 05.0011540904966,0.0432,0.0003027,5.00115409,14.5107,229.6448,115.8187
43231,O3B FM15,MEO,20333.20205172,1 43231U 18024A   20333.20205172 -.00000018 +00000-0 +00000-0 0 0001\,2 43231 000.0432 014.5970 0003026 230.1138 115.2635 05.0011539004969,0.0432,0.0003026,5.0011539,14.597,230.1138,115.2635
43231,O3B FM15,MEO,20334.40139543,1 43231U 18024A   20334.40139543 -.00000016 +00000-0 +00000-0 0 0001\,2 43231 000.0432 014.5714 0003025 231.3202 114.0827 05.0011540304975,0.0432,0.0003025,5.00115403,14.5714,231.3202,114.0827
43231,O3B FM15,MEO,20334.60128606,1 43231U 18024A   20334.60128606 -.00000016 +00000-0 +00000-0 0 0001\,2 43231 000.0432 014.5309 0003025 231.5353 113.9081 05.0011540404975,0.0432,0.0003025,5.00115404,14.5309,231.5353,113.9081
43231,O3B FM15,MEO,20335.40084874,1 43231U 18024A   20335.40084874 -.00000015  00000-0  00000+0 0  2401\,2 43231   0.0432  14.5499 0003025 232.2719 113.1523  5.00115388 49899,0.0432,0.0003025,5.00115388,14.5499,232.2719,113.1523
43231,O3B FM15,MEO,20335.60073939,1 43231U 18024A   20335.60073939 -.00000015 +00000-0 +00000-0 0 0001\,2 43231 000.0432 014.5575 0003025 232.4504 112.9663 05.0011538504980,0.0432,0.0003025,5.00115385,14.5575,232.4504,112.9663
43231,O3B FM15,MEO,20336.40030144,1 43231U 18024A   20336.40030144 -.00000014 +00000-0 +00000-0 0 0001\,2 43231 000.0432 014.5680 0003024 233.2144 112.1915 05.0011541204984,0.0432,0.0003024,5.00115412,14.568,233.2144,112.1915
43231,O3B FM15,MEO,20336.80008275,1 43231U 18024A   20336.80008275 -.00000013  00000-0  00000-0 0    11\,2 43231   0.0432  14.5675 0003025 233.5458 111.8605  5.00115401 49868,0.0432,0.0003025,5.00115401,14.5675,233.5458,111.8605
43231,O3B FM15,MEO,20337.19986394,1 43231U 18024A   20337.19986394 -.00000013  00000-0  00000-0 0    11\,2 43231   0.0432  14.5990 0003025 233.9285 111.4460  5.00115398 49893,0.0432,0.0003025,5.00115398,14.599,233.9285,111.446
43231,O3B FM15,MEO,20337.99942654,1 43231U 18024A   20337.99942654 -.00000013  00000-0  00000-0 0    10\,2 43231   0.0432  14.6071 0003025 234.7963 110.5698  5.00115372 49925,0.0432,0.0003025,5.00115372,14.6071,234.7963,110.5698
43231,O3B FM15,MEO,20338.39920794,1 43231U 18024A   20338.39920794 -.00000012  00000-0  00000-0 0    15\,2 43231   0.0432  14.6100 0003025 235.1701 110.1929  5.00115351 49945,0.0432,0.0003025,5.00115351,14.61,235.1701,110.1929
43231,O3B FM15,MEO,20339.99833277,1 43231U 18024A   20339.99833277 -.00000011  00000-0  00000-0 0    10\,2 43231   0.0432  14.6546 0003023 236.6767 108.6409  5.00115327 50035,0.0432,0.0003023,5.00115327,14.6546,236.6767,108.6409
43231,O3B FM15,MEO,20341.39756696,1 43231U 18024A   20341.39756696 -.00000011 +00000-0 +00000-0 0 0242\,2 43231 000.0432 014.6971 0003020 238.1485 107.1258 05.0011531105019,0.0432,0.000302,5.00115311,14.6971,238.1485,107.1258
43231,O3B FM15,MEO,20342.19712929,1 43231U 18024A   20342.19712929 -.00000011  00000-0  00000-0 0    16\,2 43231   0.0432  14.7008 0003020 238.9012 106.3691  5.00115312 50137,0.0432,0.000302,5.00115312,14.7008,238.9012,106.3691
43231,O3B FM15,MEO,20342.39701985,1 43231U 18024A   20342.39701985 -.00000011 +00000-0 +00000-0 0 0001\,2 43231 000.0432 014.7172 0003019 239.0155 106.2384 05.0011531305015,0.0432,0.0003019,5.00115313,14.7172,239.0155,106.2384
43231,O3B FM15,MEO,20343.39647286,1 43231U 18024A   20343.39647286 -.00000011  00000-0  00000-0 0    12\,2 43231   0.0432  14.7286 0003018 239.8575 105.3847  5.00115311 50205,0.0432,0.0003018,5.00115311,14.7286,239.8575,105.3847
43231,O3B FM15,MEO,20345.19548834,1 43231U 18024A   20345.19548834 -.00000012  00000-0  00000-0 0    12\,2 43231   0.0431  14.7317 0003017 241.3572 103.8812  5.00115312 50298,0.0431,0.0003017,5.00115312,14.7317,241.3572,103.8812
43231,O3B FM15,MEO,20346.99450401,1 43231U 18024A   20346.99450401 -.00000014  00000-0  00000-0 0    15\,2 43231   0.0432  14.8240 0003014 243.0733 102.0720  5.00115295 50378,0.0432,0.0003014,5.00115295,14.824,243.0733,102.072
43231,O3B FM15,MEO,20346.99450407,1 43231U 18024A   20346.99450407 -.00000014  00000-0  00000+0 0  2438\,2 43231   0.0432  14.7653 0003014 243.1218 102.0822  5.00115291 50474,0.0432,0.0003014,5.00115291,14.7653,243.1218,102.0822
43231,O3B FM15,MEO,20347.59417582,1 43231U 18024A   20347.59417582 -.00000015 +00000-0 +00000-0 0 0001\,2 43231 000.0432 014.7887 0003014 243.5812 101.5990 05.0011529305040,0.0432,0.0003014,5.00115293,14.7887,243.5812,101.599
43231,O3B FM15,MEO,20348.79351929,1 43231U 18024A   20348.79351929 -.00000018  00000-0  00000-0 0    14\,2 43231   0.0432  14.7972 0003014 244.7121 100.4587  5.00115301 50414,0.0432,0.0003014,5.00115301,14.7972,244.7121,100.4587
